STARLINK-36816
1 67891U 26035N   26061.16668981 -.00774585  21782-3 -11059-2 0  9996
2 67891  97.2759 352.9176 0000901 101.9957 168.2076 16.05543164  2431
STARLINK-36336
1 67901U 26035Y   26061.16668981 -.00756394  20802-3 -10895-2 0  9995
2 67901  97.2769 352.9168 0000885 100.8327 165.5602 16.05394958  2592
STARLINK-36257
1 67903U 26035AA  26061.16668981 -.00767550  21333-3 -11168-2 0  9997
2 67903  97.2769 352.9150 0000888 102.2175 160.4450 16.05230269  2594
STARLINK-36876
1 67902U 26035Z   26061.16668981 -.00772070  21535-3 -11317-2 0  9999
2 67902  97.2773 352.9146 0000936 109.5758 150.3418 16.05109754  2545
STARLINK-36361
1 67900U 26035X   26061.16668981 -.00780614  21950-3 -11520-2 0  9997
2 67900  97.2769 352.9129 0000923  95.2965 162.0082 16.04998673  2548
STARLINK-36878
1 67899U 26035W   26061.16668981 -.00765224  21117-3 -11385-2 0  9998
2 67899  97.2770 352.9114 0000991 109.8028 144.5000 16.04860919  2544
STARLINK-36813
1 67892U 26035P   26061.16668981 -.00780917  21901-3 -11692-2 0  9999
2 67892  97.2764 352.9097 0000917  96.7080 155.0961 16.04758178  2546
STARLINK-36810
1 67898U 26035V   26061.16668981 -.00788214  22250-3 -11890-2 0  9991
2 67898  97.2773 352.9091 0000954 101.8615 146.9627 16.04635486  2543
STARLINK-36870
1 67897U 26035U   26061.16668981 -.00758559  20690-3 -11520-2 0  9995
2 67897  97.2775 352.9078 0000887 105.9839 140.0764 16.04518824  2540
STARLINK-36866
1 67895U 26035S   26061.16668981 -.00770722  21271-3 -11815-2 0  9992
2 67895  97.2778 352.9067 0000896  94.1545 148.3919 16.04363612  2548
STARLINK-36846
1 67894U 26035R   26061.16668981 -.00778450  21636-3 -12023-2 0  9994
2 67894  97.2779 352.9054 0001063 112.6392 126.8498 16.04240444  2547
STARLINK-36877
1 67896U 26035T   26061.16668981 -.00790578  22232-3 -12307-2 0  9999
2 67896  97.2780 352.9037 0001002  86.4488 149.6580 16.04109489  2547
STARLINK-36803
1 67893U 26035Q   26061.16668981 -.00786670  21988-3 -12356-2 0  9995
2 67893  97.2783 352.9024 0001025 111.7265 120.6970 16.03958912  2547
STARLINK-36372
1 67889U 26035L   26061.16668981 -.00771624  21175-3 -12224-2 0  9995
2 67889  97.2784 352.9010 0000993 100.6719 128.2818 16.03813591  2540
STARLINK-36363
1 67890U 26035M   26061.16668981 -.00746570  19894-3 -11881-2 0  9992
2 67890  97.2788 352.9003 0001045 117.0128 109.7372 16.03732550  2547
